[{"OBJECT_NAME":"STARLINK-34901","OBJECT_ID":"2025-176K","EPOCH":"2026-03-09T22:52:38.258976","MEAN_MOTION":15.30203085,"ECCENTRICITY":0.00013849,"INCLINATION":53.1597,"RA_OF_ASC_NODE":151.3019,"ARG_OF_PERICENTER":78.3427,"MEAN_ANOMALY":281.7729,"EPHEMERIS_TYPE":0,"CLASSIFICATION_TYPE":"U","NORAD_CAT_ID":65207,"ELEMENT_SET_NO":999,"REV_AT_EPOCH":3316,"BSTAR":0.0010129877,"MEAN_MOTION_DOT":0.00029766,"MEAN_MOTION_DDOT":0},{"OBJECT_NAME":"CZ-4B DEB","OBJECT_ID":"2004-035N","EPOCH":"2026-03-08T07:19:22.074240","MEAN_MOTION":15.17712882,"ECCENTRICITY":0.00700404,"INCLINATION":97.867,"RA_OF_ASC_NODE":11.9774,"ARG_OF_PERICENTER":119.6038,"MEAN_ANOMALY":241.2197,"EPHEMERIS_TYPE":0,"CLASSIFICATION_TYPE":"U","NORAD_CAT_ID":35270,"ELEMENT_SET_NO":999,"REV_AT_EPOCH":13623,"BSTAR":0.0033008842,"MEAN_MOTION_DOT":0.00071474,"MEAN_MOTION_DDOT":0}]
